[{"OBJECT_NAME":"PUNCH-WFI 3 (SMEX 15D)","OBJECT_ID":"2025-047C","EPOCH":"2026-03-09T15:33:49.952448","MEAN_MOTION":14.74226556,"ECCENTRICITY":0.00111539,"INCLINATION":97.9538,"RA_OF_ASC_NODE":255.5249,"ARG_OF_PERICENTER":124.4994,"MEAN_ANOMALY":235.7269,"EPHEMERIS_TYPE":0,"CLASSIFICATION_TYPE":"U","NORAD_CAT_ID":63180,"ELEMENT_SET_NO":999,"REV_AT_EPOCH":5339,"BSTAR":0.00013724614,"MEAN_MOTION_DOT":8.58e-6,"MEAN_MOTION_DDOT":0},{"OBJECT_NAME":"CZ-6A DEB","OBJECT_ID":"2022-151HB","EPOCH":"2026-03-09T16:54:28.951200","MEAN_MOTION":14.62267022,"ECCENTRICITY":0.01357814,"INCLINATION":98.6045,"RA_OF_ASC_NODE":139.1132,"ARG_OF_PERICENTER":191.3918,"MEAN_ANOMALY":168.4201,"EPHEMERIS_TYPE":0,"CLASSIFICATION_TYPE":"U","NORAD_CAT_ID":54475,"ELEMENT_SET_NO":999,"REV_AT_EPOCH":17613,"BSTAR":0.0010236692,"MEAN_MOTION_DOT":5.838e-5,"MEAN_MOTION_DDOT":0}]
